{
  "type": "FeatureCollection",
  "features": [
    {
      "type": "Feature",
      "properties": {
        "norad_id": 64694,
        "name": "GOSAT-GW (IBUKI GW)",
        "group": "resource",
        "lat": -61.53758005654216,
        "lon": 100.54121641307205,
        "alt_km": 676.9854081827862,
        "timestamp": "2025-12-26T09:30:53.285913+00:00",
        "meta_object_name": "GOSAT-GW (IBUKI GW)",
        "meta_object_id": "2025-141A",
        "meta_epoch": "2025-12-25T22:35:41.590176",
        "meta_mean_motion": 14.67561138,
        "meta_eccentricity": 0.00014267,
        "meta_inclination": 98.044,
        "meta_ra_of_asc_node": 295.216,
        "meta_arg_of_pericenter": 82.1724,
        "meta_mean_anomaly": 277.9643,
        "meta_ephemeris_type": 0,
        "meta_classification_type": "U",
        "meta_norad_cat_id": 64694,
        "meta_element_set_no": 999,
        "meta_rev_at_epoch": 2643,
        "meta_bstar": 0.00018724095,
        "meta_mean_motion_dot": 1.015e-05,
        "meta_mean_motion_ddot": 0,
        "tle_line1": "1 64694U 25141A   25359.94145359  .00001015  00000+0  18724-3 0  9997",
        "tle_line2": "2 64694  98.0440 295.2160 0001426  82.1724 277.9643 14.67561138 26433"
      },
      "geometry": {
        "type": "Point",
        "coordinates": [
          100.54121641307205,
          -61.53758005654216
        ]
      }
    },
    {
      "type": "Feature",
      "properties": {
        "norad_id": 64876,
        "name": "IONOSFERA-M 3",
        "group": "resource",
        "lat": 38.10162950529085,
        "lon": 148.67630720822703,
        "alt_km": 817.9203084771943,
        "timestamp": "2025-12-26T09:30:53.285923+00:00",
        "meta_object_name": "IONOSFERA-M 3",
        "meta_object_id": "2025-155A",
        "meta_epoch": "2025-12-26T03:47:03.408576",
        "meta_mean_motion": 14.21444231,
        "meta_eccentricity": 0.0001807,
        "meta_inclination": 98.5801,
        "meta_ra_of_asc_node": 321.6452,
        "meta_arg_of_pericenter": 38.3682,
        "meta_mean_anomaly": 321.7624,
        "meta_ephemeris_type": 0,
        "meta_classification_type": "U",
        "meta_norad_cat_id": 64876,
        "meta_element_set_no": 999,
        "meta_rev_at_epoch": 2182,
        "meta_bstar": 6.0795e-05,
        "meta_mean_motion_dot": 9e-07,
        "meta_mean_motion_ddot": 0,
        "tle_line1": "1 64876U 25155A   25360.15767834  .00000090  00000+0  60795-4 0  9995",
        "tle_line2": "2 64876  98.5801 321.6452 0001807  38.3682 321.7624 14.21444231 21827"
      },
      "geometry": {
        "type": "Point",
        "coordinates": [
          148.67630720822703,
          38.10162950529085
        ]
      }
    },
    {
      "type": "Feature",
      "properties": {
        "norad_id": 64877,
        "name": "IONOSFERA-M 4",
        "group": "resource",
        "lat": -37.61701644419032,
        "lon": -31.52247276611456,
        "alt_km": 826.7950307848323,
        "timestamp": "2025-12-26T09:30:53.285933+00:00",
        "meta_object_name": "IONOSFERA-M 4",
        "meta_object_id": "2025-155B",
        "meta_epoch": "2025-12-26T04:37:32.240064",
        "meta_mean_motion": 14.2144537,
        "meta_eccentricity": 0.000125,
        "meta_inclination": 98.5802,
        "meta_ra_of_asc_node": 321.5986,
        "meta_arg_of_pericenter": 51.0399,
        "meta_mean_anomaly": 309.089,
        "meta_ephemeris_type": 0,
        "meta_classification_type": "U",
        "meta_norad_cat_id": 64877,
        "meta_element_set_no": 999,
        "meta_rev_at_epoch": 2182,
        "meta_bstar": 5.8514e-05,
        "meta_mean_motion_dot": 8.5e-07,
        "meta_mean_motion_ddot": 0,
        "tle_line1": "1 64877U 25155B   25360.19273426  .00000085  00000+0  58514-4 0  9999",
        "tle_line2": "2 64877  98.5802 321.5986 0001250  51.0399 309.0890 14.21445370 21828"
      },
      "geometry": {
        "type": "Point",
        "coordinates": [
          -31.52247276611456,
          -37.61701644419032
        ]
      }
    },
    {
      "type": "Feature",
      "properties": {
        "norad_id": 64899,
        "name": "MICROCARB",
        "group": "resource",
        "lat": 78.21056200339926,
        "lon": 33.154976963685456,
        "alt_km": 635.6494788647788,
        "timestamp": "2025-12-26T09:30:53.285943+00:00",
        "meta_object_name": "MICROCARB",
        "meta_object_id": "2025-156A",
        "meta_epoch": "2025-12-26T04:15:11.979072",
        "meta_mean_motion": 14.72078134,
        "meta_eccentricity": 0.0017662,
        "meta_inclination": 98.0009,
        "meta_ra_of_asc_node": 75.3064,
        "meta_arg_of_pericenter": 104.5571,
        "meta_mean_anomaly": 255.7596,
        "meta_ephemeris_type": 0,
        "meta_classification_type": "U",
        "meta_norad_cat_id": 64899,
        "meta_element_set_no": 999,
        "meta_rev_at_epoch": 2251,
        "meta_bstar": 0.00011937,
        "meta_mean_motion_dot": 7.02e-06,
        "meta_mean_motion_ddot": 0,
        "tle_line1": "1 64899U 25156A   25360.17722198  .00000702  00000+0  11937-3 0  9990",
        "tle_line2": "2 64899  98.0009  75.3064 0017662 104.5571 255.7596 14.72078134 22510"
      },
      "geometry": {
        "type": "Point",
        "coordinates": [
          33.154976963685456,
          78.21056200339926
        ]
      }
    },
    {
      "type": "Feature",
      "properties": {
        "norad_id": 64900,
        "name": "CO3D 3",
        "group": "resource",
        "lat": -34.51114689912331,
        "lon": 81.71910810663829,
        "alt_km": 511.68659604960794,
        "timestamp": "2025-12-26T09:30:53.285953+00:00",
        "meta_object_name": "CO3D 3",
        "meta_object_id": "2025-156B",
        "meta_epoch": "2025-12-26T04:55:42.693600",
        "meta_mean_motion": 15.20197634,
        "meta_eccentricity": 0.0001336,
        "meta_inclination": 97.4344,
        "meta_ra_of_asc_node": 76.3797,
        "meta_arg_of_pericenter": 64.5941,
        "meta_mean_anomaly": 295.5433,
        "meta_ephemeris_type": 0,
        "meta_classification_type": "U",
        "meta_norad_cat_id": 64900,
        "meta_element_set_no": 999,
        "meta_rev_at_epoch": 2325,
        "meta_bstar": 1.8193e-05,
        "meta_mean_motion_dot": 3.26e-06,
        "meta_mean_motion_ddot": 0,
        "tle_line1": "1 64900U 25156B   25360.20535525  .00000326  00000+0  18193-4 0  9997",
        "tle_line2": "2 64900  97.4344  76.3797 0001336  64.5941 295.5433 15.20197634 23254"
      },
      "geometry": {
        "type": "Point",
        "coordinates": [
          81.71910810663829,
          -34.51114689912331
        ]
      }
    },
    {
      "type": "Feature",
      "properties": {
        "norad_id": 64901,
        "name": "CO3D 4",
        "group": "resource",
        "lat": -35.34525404323497,
        "lon": 81.880918875661,
        "alt_km": 512.5445958844275,
        "timestamp": "2025-12-26T09:30:53.285963+00:00",
        "meta_object_name": "CO3D 4",
        "meta_object_id": "2025-156C",
        "meta_epoch": "2025-12-26T03:21:09.043200",
        "meta_mean_motion": 15.20191705,
        "meta_eccentricity": 0.0001369,
        "meta_inclination": 97.4337,
        "meta_ra_of_asc_node": 76.3146,
        "meta_arg_of_pericenter": 149.5803,
        "meta_mean_anomaly": 210.5511,
        "meta_ephemeris_type": 0,
        "meta_classification_type": "U",
        "meta_norad_cat_id": 64901,
        "meta_element_set_no": 999,
        "meta_rev_at_epoch": 2324,
        "meta_bstar": 0.00022855,
        "meta_mean_motion_dot": 4.882e-05,
        "meta_mean_motion_ddot": 0,
        "tle_line1": "1 64901U 25156C   25360.13968800  .00004882  00000+0  22855-3 0  9996",
        "tle_line2": "2 64901  97.4337  76.3146 0001369 149.5803 210.5511 15.20191705 23248"
      },
      "geometry": {
        "type": "Point",
        "coordinates": [
          81.880918875661,
          -35.34525404323497
        ]
      }
    },
    {
      "type": "Feature",
      "properties": {
        "norad_id": 64902,
        "name": "CO3D 2",
        "group": "resource",
        "lat": 32.77558366340422,
        "lon": -98.71104867984856,
        "alt_km": 503.31850170044527,
        "timestamp": "2025-12-26T09:30:53.285973+00:00",
        "meta_object_name": "CO3D 2",
        "meta_object_id": "2025-156D",
        "meta_epoch": "2025-12-26T04:07:54.916032",
        "meta_mean_motion": 15.20197422,
        "meta_eccentricity": 7.86e-05,
        "meta_inclination": 97.434,
        "meta_ra_of_asc_node": 76.2454,
        "meta_arg_of_pericenter": 60.3399,
        "meta_mean_anomaly": 299.7915,
        "meta_ephemeris_type": 0,
        "meta_classification_type": "U",
        "meta_norad_cat_id": 64902,
        "meta_element_set_no": 999,
        "meta_rev_at_epoch": 2324,
        "meta_bstar": 0.00013911,
        "meta_mean_motion_dot": 2.945e-05,
        "meta_mean_motion_ddot": 0,
        "tle_line1": "1 64902U 25156D   25360.17216338  .00002945  00000+0  13911-3 0  9994",
        "tle_line2": "2 64902  97.4340  76.2454 0000786  60.3399 299.7915 15.20197422 23245"
      },
      "geometry": {
        "type": "Point",
        "coordinates": [
          -98.71104867984856,
          32.77558366340422
        ]
      }
    }
  ]
}